[{"OBJECT_NAME":"HULIANWANG DIGUI-16","OBJECT_ID":"2025-030F","EPOCH":"2026-03-09T21:09:15.218496","MEAN_MOTION":13.2933874,"ECCENTRICITY":8.475e-5,"INCLINATION":50.0034,"RA_OF_ASC_NODE":231.7718,"ARG_OF_PERICENTER":168.3823,"MEAN_ANOMALY":191.7068,"EPHEMERIS_TYPE":0,"CLASSIFICATION_TYPE":"U","NORAD_CAT_ID":62976,"ELEMENT_SET_NO":999,"REV_AT_EPOCH":5265,"BSTAR":0.0001072585,"MEAN_MOTION_DOT":-7.4e-7,"MEAN_MOTION_DDOT":0},{"OBJECT_NAME":"FENGYUN 1C DEB","OBJECT_ID":"1999-025EJJ","EPOCH":"2026-03-02T03:33:44.205984","MEAN_MOTION":13.47779532,"ECCENTRICITY":0.04539784,"INCLINATION":102.705,"RA_OF_ASC_NODE":11.7094,"ARG_OF_PERICENTER":304.2208,"MEAN_ANOMALY":51.668,"EPHEMERIS_TYPE":0,"CLASSIFICATION_TYPE":"U","NORAD_CAT_ID":37464,"ELEMENT_SET_NO":999,"REV_AT_EPOCH":61991,"BSTAR":0.0030103796,"MEAN_MOTION_DOT":3.418e-5,"MEAN_MOTION_DDOT":0}]
